[{"OBJECT_NAME":"STARLINK-32510","OBJECT_ID":"2024-216J","EPOCH":"2026-03-09T12:38:39.435648","MEAN_MOTION":15.27549679,"ECCENTRICITY":9.599e-5,"INCLINATION":42.9971,"RA_OF_ASC_NODE":264.7697,"ARG_OF_PERICENTER":195.8026,"MEAN_ANOMALY":164.2795,"EPHEMERIS_TYPE":0,"CLASSIFICATION_TYPE":"U","NORAD_CAT_ID":62040,"ELEMENT_SET_NO":999,"REV_AT_EPOCH":7376,"BSTAR":0.00093471187,"MEAN_MOTION_DOT":0.00025524,"MEAN_MOTION_DDOT":0},{"OBJECT_NAME":"OBJECT BC","OBJECT_ID":"2025-313BC","EPOCH":"2026-03-09T04:33:08.504064","MEAN_MOTION":15.29126358,"ECCENTRICITY":0.00084789,"INCLINATION":97.3985,"RA_OF_ASC_NODE":144.811,"ARG_OF_PERICENTER":328.9209,"MEAN_ANOMALY":31.1528,"EPHEMERIS_TYPE":0,"CLASSIFICATION_TYPE":"U","NORAD_CAT_ID":67298,"ELEMENT_SET_NO":999,"REV_AT_EPOCH":789,"BSTAR":0.0026410397,"MEAN_MOTION_DOT":0.00075331,"MEAN_MOTION_DDOT":0}]
